{"type": "FeatureCollection", "features": [ {"type": "Feature", "properties": {"norad_id": 67031, "name": "STARLINK-36150", "group": "last-30-days", "lat": -20.13358848904051, "lon": -65.94197371759819, "alt_km": 387.4500561920295, "timestamp": "2025-12-27T17:24:56.108554+00:00", "meta": {"OBJECT_NAME": "STARLINK-36150", "OBJECT_ID": "2025-294B", "EPOCH": "2025-12-27T12:00:02.000160", "MEAN_MOTION": 15.6161062, "ECCENTRICITY": 0.000156, "INCLINATION": 42.9991, "RA_OF_ASC_NODE": 92.2304, "ARG_OF_PERICENTER": 281.3069, "MEAN_ANOMALY": 99.3918, "EPHEMERIS_TYPE": 0, "CLASSIFICATION_TYPE": "U", "NORAD_CAT_ID": 67031, "ELEMENT_SET_NO": 999, "REV_AT_EPOCH": 267, "BSTAR": -0.024666, "MEAN_MOTION_DOT": -0.01925299, "MEAN_MOTION_DDOT": 0}, "tle": {"line1": "1 67031U 25294B   25361.50002315 -.01925299  00000+0 -24666-1 0  9995", "line2": "2 67031  42.9991  92.2304 0001560 281.3069  99.3918 15.61610620  2676"}}, "geometry": {"type": "Point", "coordinates": [-65.94197371759819, -20.13358848904051]}}, {"type": "Feature", "properties": {"norad_id": 67032, "name": "STARLINK-36131", "group": "last-30-days", "lat": -22.580514980185814, "lon": -62.614545446816976, "alt_km": 387.59744666337065, "timestamp": "2025-12-27T17:24:56.108566+00:00", "meta": {"OBJECT_NAME": "STARLINK-36131", "OBJECT_ID": "2025-294C", "EPOCH": "2025-12-27T12:00:02.000160", "MEAN_MOTION": 15.61594454, "ECCENTRICITY": 0.0001511, "INCLINATION": 42.9991, "RA_OF_ASC_NODE": 92.2205, "ARG_OF_PERICENTER": 279.684, "MEAN_ANOMALY": 104.984, "EPHEMERIS_TYPE": 0, "CLASSIFICATION_TYPE": "U", "NORAD_CAT_ID": 67032, "ELEMENT_SET_NO": 999, "REV_AT_EPOCH": 247, "BSTAR": -0.024609, "MEAN_MOTION_DOT": -0.0192025, "MEAN_MOTION_DDOT": 0}, "tle": {"line1": "1 67032U 25294C   25361.50002315 -.01920250  00000+0 -24609-1 0  9995", "line2": "2 67032  42.9991  92.2205 0001511 279.6840 104.9840 15.61594454  2471"}}, "geometry": {"type": "Point", "coordinates": [-62.614545446816976, -22.580514980185814]}}, {"type": "Feature", "properties": {"norad_id": 67033, "name": "STARLINK-36137", "group": "last-30-days", "lat": -21.362530049665178, "lon": -64.29589318506319, "alt_km": 387.5720958622096, "timestamp": "2025-12-27T17:24:56.108576+00:00", "meta": {"OBJECT_NAME": "STARLINK-36137", "OBJECT_ID": "2025-294D", "EPOCH": "2025-12-27T12:00:02.000160", "MEAN_MOTION": 15.61605246, "ECCENTRICITY": 0.0001474, "INCLINATION": 42.9994, "RA_OF_ASC_NODE": 92.2258, "ARG_OF_PERICENTER": 282.3105, "MEAN_ANOMALY": 100.3662, "EPHEMERIS_TYPE": 0, "CLASSIFICATION_TYPE": "U", "NORAD_CAT_ID": 67033, "ELEMENT_SET_NO": 999, "REV_AT_EPOCH": 247, "BSTAR": -0.024681, "MEAN_MOTION_DOT": -0.01925921, "MEAN_MOTION_DDOT": 0}, "tle": {"line1": "1 67033U 25294D   25361.50002315 -.01925921  00000+0 -24681-1 0  9996", "line2": "2 67033  42.9994  92.2258 0001474 282.3105 100.3662 15.61605246  2470"}}, "geometry": {"type": "Point", "coordinates": [-64.29589318506319, -21.362530049665178]}}, {"type": "Feature", "properties": {"norad_id": 67034, "name": "STARLINK-36140", "group": "last-30-days", "lat": -23.817563594394954, "lon": -60.85312257228159, "alt_km": 387.50074206115096, "timestamp": "2025-12-27T17:24:56.108586+00:00", "meta": {"OBJECT_NAME": "STARLINK-36140", "OBJECT_ID": "2025-294E", "EPOCH": "2025-12-27T06:00:02.000160", "MEAN_MOTION": 15.62628991, "ECCENTRICITY": 0.00014495, "INCLINATION": 42.9993, "RA_OF_ASC_NODE": 93.7002, "ARG_OF_PERICENTER": 279.5923, "MEAN_ANOMALY": 139.5249, "EPHEMERIS_TYPE": 0, "CLASSIFICATION_TYPE": "U", "NORAD_CAT_ID": 67034, "ELEMENT_SET_NO": 999, "REV_AT_EPOCH": 244, "BSTAR": -0.02334814, "MEAN_MOTION_DOT": -0.01900237, "MEAN_MOTION_DDOT": 0}, "tle": {"line1": "1 67034U 25294E   25361.25002315 -.01900237  00000+0 -23348-1 0  9991", "line2": "2 67034  42.9993  93.7002 0001449 279.5923 139.5249 15.62628991  2446"}}, "geometry": {"type": "Point", "coordinates": [-60.85312257228159, -23.817563594394954]}}, {"type": "Feature", "properties": {"norad_id": 67035, "name": "STARLINK-36085", "group": "last-30-days", "lat": -26.215436973385522, "lon": -57.23640884258895, "alt_km": 387.90315775674117, "timestamp": "2025-12-27T17:24:56.108598+00:00", "meta": {"OBJECT_NAME": "STARLINK-36085", "OBJECT_ID": "2025-294F", "EPOCH": "2025-12-27T12:00:02.000160", "MEAN_MOTION": 15.61552427, "ECCENTRICITY": 0.0001526, "INCLINATION": 42.999, "RA_OF_ASC_NODE": 92.2052, "ARG_OF_PERICENTER": 280.7998, "MEAN_ANOMALY": 110.0165, "EPHEMERIS_TYPE": 0, "CLASSIFICATION_TYPE": "U", "NORAD_CAT_ID": 67035, "ELEMENT_SET_NO": 999, "REV_AT_EPOCH": 248, "BSTAR": -0.024652, "MEAN_MOTION_DOT": -0.01920441, "MEAN_MOTION_DDOT": 0}, "tle": {"line1": "1 67035U 25294F   25361.50002315 -.01920441  00000+0 -24652-1 0  9998", "line2": "2 67035  42.9990  92.2052 0001526 280.7998 110.0165 15.61552427  2489"}}, "geometry": {"type": "Point", "coordinates": [-57.23640884258895, -26.215436973385522]}}, {"type": "Feature", "properties": {"norad_id": 67036, "name": "STARLINK-36125", "group": "last-30-days", "lat": -25.02248572929866, "lon": -59.0678763744121, "alt_km": 387.77980482365547, "timestamp": "2025-12-27T17:24:56.108608+00:00", "meta": {"OBJECT_NAME": "STARLINK-36125", "OBJECT_ID": "2025-294G", "EPOCH": "2025-12-27T12:00:02.000160", "MEAN_MOTION": 15.61566841, "ECCENTRICITY": 0.0001497, "INCLINATION": 42.9989, "RA_OF_ASC_NODE": 92.2105, "ARG_OF_PERICENTER": 278.8104, "MEAN_ANOMALY": 109.9506, "EPHEMERIS_TYPE": 0, "CLASSIFICATION_TYPE": "U", "NORAD_CAT_ID": 67036, "ELEMENT_SET_NO": 999, "REV_AT_EPOCH": 267, "BSTAR": -0.024619, "MEAN_MOTION_DOT": -0.01919128, "MEAN_MOTION_DDOT": 0}, "tle": {"line1": "1 67036U 25294G   25361.50002315 -.01919128  00000+0 -24619-1 0  9992", "line2": "2 67036  42.9989  92.2105 0001497 278.8104 109.9506 15.61566841  2673"}}, "geometry": {"type": "Point", "coordinates": [-59.0678763744121, -25.02248572929866]}}, {"type": "Feature", "properties": {"norad_id": 67037, "name": "STARLINK-35732", "group": "last-30-days", "lat": -27.404563271069748, "lon": -55.33465418367315, "alt_km": 388.0075369968308, "timestamp": "2025-12-27T17:24:56.108620+00:00", "meta": {"OBJECT_NAME": "STARLINK-35732", "OBJECT_ID": "2025-294H", "EPOCH": "2025-12-27T12:00:02.000160", "MEAN_MOTION": 15.61522795, "ECCENTRICITY": 0.0001649, "INCLINATION": 42.9992, "RA_OF_ASC_NODE": 92.1999, "ARG_OF_PERICENTER": 282.7825, "MEAN_ANOMALY": 110.1338, "EPHEMERIS_TYPE": 0, "CLASSIFICATION_TYPE": "U", "NORAD_CAT_ID": 67037, "ELEMENT_SET_NO": 999, "REV_AT_EPOCH": 259, "BSTAR": -0.024447, "MEAN_MOTION_DOT": -0.01904445, "MEAN_MOTION_DDOT": 0}, "tle": {"line1": "1 67037U 25294H   25361.50002315 -.01904445  00000+0 -24447-1 0  9998", "line2": "2 67037  42.9992  92.1999 0001649 282.7825 110.1338 15.61522795  2599"}}, "geometry": {"type": "Point", "coordinates": [-55.33465418367315, -27.404563271069748]}}, {"type": "Feature", "properties": {"norad_id": 67038, "name": "STARLINK-35775", "group": "last-30-days", "lat": -28.52112055179264, "lon": -53.47056665703135, "alt_km": 388.21009912157933, "timestamp": "2025-12-27T17:24:56.108630+00:00", "meta": {"OBJECT_NAME": "STARLINK-35775", "OBJECT_ID": "2025-294J", "EPOCH": "2025-12-27T12:00:02.000160", "MEAN_MOTION": 15.61534545, "ECCENTRICITY": 0.000134, "INCLINATION": 42.9989, "RA_OF_ASC_NODE": 92.1942, "ARG_OF_PERICENTER": 284.52, "MEAN_ANOMALY": 110.3877, "EPHEMERIS_TYPE": 0, "CLASSIFICATION_TYPE": "U", "NORAD_CAT_ID": 67038, "ELEMENT_SET_NO": 999, "REV_AT_EPOCH": 259, "BSTAR": -0.024986, "MEAN_MOTION_DOT": -0.01942072, "MEAN_MOTION_DDOT": 0}, "tle": {"line1": "1 67038U 25294J   25361.50002315 -.01942072  00000+0 -24986-1 0  9995", "line2": "2 67038  42.9989  92.1942 0001340 284.5200 110.3877 15.61534545  2595"}}, "geometry": {"type": "Point", "coordinates": [-53.47056665703135, -28.52112055179264]}}, {"type": "Feature", "properties": {"norad_id": 67039, "name": "STARLINK-35705", "group": "last-30-days", "lat": -30.687374723654205, "lon": -49.59613547099765, "alt_km": 388.33735380404505, "timestamp": "2025-12-27T17:24:56.108640+00:00", "meta": {"OBJECT_NAME": "STARLINK-35705", "OBJECT_ID": "2025-294K", "EPOCH": "2025-12-27T12:00:02.000160", "MEAN_MOTION": 15.61515952, "ECCENTRICITY": 0.0001273, "INCLINATION": 42.9988, "RA_OF_ASC_NODE": 92.1843, "ARG_OF_PERICENTER": 282.2949, "MEAN_ANOMALY": 116.6434, "EPHEMERIS_TYPE": 0, "CLASSIFICATION_TYPE": "U", "NORAD_CAT_ID": 67039, "ELEMENT_SET_NO": 999, "REV_AT_EPOCH": 248, "BSTAR": -0.025056, "MEAN_MOTION_DOT": -0.01945547, "MEAN_MOTION_DDOT": 0}, "tle": {"line1": "1 67039U 25294K   25361.50002315 -.01945547  00000+0 -25056-1 0  9995", "line2": "2 67039  42.9988  92.1843 0001273 282.2949 116.6434 15.61515952  2482"}}, "geometry": {"type": "Point", "coordinates": [-49.59613547099765, -30.687374723654205]}}, {"type": "Feature", "properties": {"norad_id": 67040, "name": "STARLINK-35786", "group": "last-30-days", "lat": -29.6290441543647, "lon": -51.53442814578987, "alt_km": 388.1783245399092, "timestamp": "2025-12-27T17:24:56.108650+00:00", "meta": {"OBJECT_NAME": "STARLINK-35786", "OBJECT_ID": "2025-294L", "EPOCH": "2025-12-27T12:00:02.000160", "MEAN_MOTION": 15.61502053, "ECCENTRICITY": 0.0001629, "INCLINATION": 42.9991, "RA_OF_ASC_NODE": 92.1903, "ARG_OF_PERICENTER": 283.9757, "MEAN_ANOMALY": 112.9808, "EPHEMERIS_TYPE": 0, "CLASSIFICATION_TYPE": "U", "NORAD_CAT_ID": 67040, "ELEMENT_SET_NO": 999, "REV_AT_EPOCH": 248, "BSTAR": -0.024525, "MEAN_MOTION_DOT": -0.01908428, "MEAN_MOTION_DDOT": 0}, "tle": {"line1": "1 67040U 25294L   25361.50002315 -.01908428  00000+0 -24525-1 0  9994", "line2": "2 67040  42.9991  92.1903 0001629 283.9757 112.9808 15.61502053  2487"}}, "geometry": {"type": "Point", "coordinates": [-51.53442814578987, -29.6290441543647]}}]}